[{"OBJECT_NAME":"STARLINK-34035","OBJECT_ID":"2025-098M","EPOCH":"2026-03-09T21:32:22.597728","MEAN_MOTION":14.98330959,"ECCENTRICITY":0.00026,"INCLINATION":70.0003,"RA_OF_ASC_NODE":273.9293,"ARG_OF_PERICENTER":261.6491,"MEAN_ANOMALY":98.4374,"EPHEMERIS_TYPE":0,"CLASSIFICATION_TYPE":"U","NORAD_CAT_ID":63937,"ELEMENT_SET_NO":999,"REV_AT_EPOCH":4658,"BSTAR":0.00020043419,"MEAN_MOTION_DOT":2.299e-5,"MEAN_MOTION_DDOT":0},{"OBJECT_NAME":"CZ-4B DEB","OBJECT_ID":"2013-057C","EPOCH":"2026-03-09T09:32:06.535968","MEAN_MOTION":14.59124108,"ECCENTRICITY":0.01737289,"INCLINATION":75.0488,"RA_OF_ASC_NODE":75.5028,"ARG_OF_PERICENTER":23.1031,"MEAN_ANOMALY":337.7829,"EPHEMERIS_TYPE":0,"CLASSIFICATION_TYPE":"U","NORAD_CAT_ID":40530,"ELEMENT_SET_NO":999,"REV_AT_EPOCH":57781,"BSTAR":0.0012357607,"MEAN_MOTION_DOT":7.166e-5,"MEAN_MOTION_DDOT":0}]
